ORBCOMM FM33            
1 25983U 99065D   25007.79650463  .00002367  00000+0  80162-3 0  9997
2 25983  45.0289  41.1202 0009872 322.4009  37.6149 14.39216945313026
ORBCOMM FM36            
1 25984U 99065E   25007.61930800  .00002788  00000+0  97255-3 0  9993
2 25984  45.0378 131.4159 0005101 215.7826 144.2681 14.37336279311319
ORBCOMM FM35            
1 25985U 99065F   25007.55908919  .00002331  00000+0  83557-3 0  9997
2 25985  45.0380 135.5243 0003615 284.9100  75.1348 14.36446764311685
ORBCOMM FM34            
1 25986U 99065G   25007.80765225  .00002422  00000+0  86556-3 0  9990
2 25986  45.0375 134.8729 0005076 245.7876 114.2442 14.36491922311876
ORBCOMM FM38            
1 33060U 08031A   25007.68351870  .00004224  00000+0  57891-3 0  9990
2 33060  48.4412 359.4972 0005321  61.3249 298.8200 14.80067308890959
ORBCOMM FM41            
1 33061U 08031B   25007.40268087  .00004184  00000+0  57865-3 0  9994
2 33061  48.4445   8.0856 0004669  43.1224 109.5449 14.79696589890410
ORBCOMM FM29            
1 33062U 08031C   25007.46308247  .00004171  00000+0  57644-3 0  9995
2 33062  48.4398  15.7676 0006366  44.1674 112.4660 14.79735339890335
ORBCOMM FM39            
1 33063U 08031D   25007.51723393  .00003506  00000+0  50388-3 0  9994
2 33063  48.4409  38.1037 0007441  18.7122 341.4064 14.78445840890010
