<?xml version="1.0" encoding="UTF-8"?>
<ndm xmlns:xsi="http://www.w3.org/2001/XMLSchema-instance" xsi:noNamespaceSchemaLocation="https://sanaregistry.org/r/ndmxml_unqualified/ndmxml-2.0.0-master-2.0.xsd">
<omm id="CCSDS_OMM_VERS" version="2.0">
<header><CREATION_DATE/><ORIGINATOR/></header><body><segment><metadata><OBJECT_NAME>ORBCOMM FM33</OBJECT_NAME><OBJECT_ID>1999-065D</OBJECT_ID><CENTER_NAME>EARTH</CENTER_NAME><REF_FRAME>TEME</REF_FRAME><TIME_SYSTEM>UTC</TIME_SYSTEM><MEAN_ELEMENT_THEORY>SGP4</MEAN_ELEMENT_THEORY></metadata><data><meanElements><EPOCH>2025-01-07T19:06:58.000032</EPOCH><MEAN_MOTION>14.39216945</MEAN_MOTION><ECCENTRICITY>.0009872</ECCENTRICITY><INCLINATION>45.0289</INCLINATION><RA_OF_ASC_NODE>41.1202</RA_OF_ASC_NODE><ARG_OF_PERICENTER>322.4009</ARG_OF_PERICENTER><MEAN_ANOMALY>37.6149</MEAN_ANOMALY></meanElements><tleParameters><EPHEMERIS_TYPE>0</EPHEMERIS_TYPE><CLASSIFICATION_TYPE>U</CLASSIFICATION_TYPE><NORAD_CAT_ID>25983</NORAD_CAT_ID><ELEMENT_SET_NO>999</ELEMENT_SET_NO><REV_AT_EPOCH>31302</REV_AT_EPOCH><BSTAR>.80162E-3</BSTAR><MEAN_MOTION_DOT>.2367E-4</MEAN_MOTION_DOT><MEAN_MOTION_DDOT>0</MEAN_MOTION_DDOT></tleParameters></data></segment></body></omm>
<omm id="CCSDS_OMM_VERS" version="2.0">
<header><CREATION_DATE/><ORIGINATOR/></header><body><segment><metadata><OBJECT_NAME>ORBCOMM FM36</OBJECT_NAME><OBJECT_ID>1999-065E</OBJECT_ID><CENTER_NAME>EARTH</CENTER_NAME><REF_FRAME>TEME</REF_FRAME><TIME_SYSTEM>UTC</TIME_SYSTEM><MEAN_ELEMENT_THEORY>SGP4</MEAN_ELEMENT_THEORY></metadata><data><meanElements><EPOCH>2025-01-07T14:51:48.211200</EPOCH><MEAN_MOTION>14.37336279</MEAN_MOTION><ECCENTRICITY>.0005101</ECCENTRICITY><INCLINATION>45.0378</INCLINATION><RA_OF_ASC_NODE>131.4159</RA_OF_ASC_NODE><ARG_OF_PERICENTER>215.7826</ARG_OF_PERICENTER><MEAN_ANOMALY>144.2681</MEAN_ANOMALY></meanElements><tleParameters><EPHEMERIS_TYPE>0</EPHEMERIS_TYPE><CLASSIFICATION_TYPE>U</CLASSIFICATION_TYPE><NORAD_CAT_ID>25984</NORAD_CAT_ID><ELEMENT_SET_NO>999</ELEMENT_SET_NO><REV_AT_EPOCH>31131</REV_AT_EPOCH><BSTAR>.97255E-3</BSTAR><MEAN_MOTION_DOT>.2788E-4</MEAN_MOTION_DOT><MEAN_MOTION_DDOT>0</MEAN_MOTION_DDOT></tleParameters></data></segment></body></omm>
<omm id="CCSDS_OMM_VERS" version="2.0">
<header><CREATION_DATE/><ORIGINATOR/></header><body><segment><metadata><OBJECT_NAME>ORBCOMM FM35</OBJECT_NAME><OBJECT_ID>1999-065F</OBJECT_ID><CENTER_NAME>EARTH</CENTER_NAME><REF_FRAME>TEME</REF_FRAME><TIME_SYSTEM>UTC</TIME_SYSTEM><MEAN_ELEMENT_THEORY>SGP4</MEAN_ELEMENT_THEORY></metadata><data><meanElements><EPOCH>2025-01-07T13:25:05.306016</EPOCH><MEAN_MOTION>14.36446764</MEAN_MOTION><ECCENTRICITY>.0003615</ECCENTRICITY><INCLINATION>45.0380</INCLINATION><RA_OF_ASC_NODE>135.5243</RA_OF_ASC_NODE><ARG_OF_PERICENTER>284.9100</ARG_OF_PERICENTER><MEAN_ANOMALY>75.1348</MEAN_ANOMALY></meanElements><tleParameters><EPHEMERIS_TYPE>0</EPHEMERIS_TYPE><CLASSIFICATION_TYPE>U</CLASSIFICATION_TYPE><NORAD_CAT_ID>25985</NORAD_CAT_ID><ELEMENT_SET_NO>999</ELEMENT_SET_NO><REV_AT_EPOCH>31168</REV_AT_EPOCH><BSTAR>.83557E-3</BSTAR><MEAN_MOTION_DOT>.2331E-4</MEAN_MOTION_DOT><MEAN_MOTION_DDOT>0</MEAN_MOTION_DDOT></tleParameters></data></segment></body></omm>
<omm id="CCSDS_OMM_VERS" version="2.0">
<header><CREATION_DATE/><ORIGINATOR/></header><body><segment><metadata><OBJECT_NAME>ORBCOMM FM34</OBJECT_NAME><OBJECT_ID>1999-065G</OBJECT_ID><CENTER_NAME>EARTH</CENTER_NAME><REF_FRAME>TEME</REF_FRAME><TIME_SYSTEM>UTC</TIME_SYSTEM><MEAN_ELEMENT_THEORY>SGP4</MEAN_ELEMENT_THEORY></metadata><data><meanElements><EPOCH>2025-01-07T19:23:01.154400</EPOCH><MEAN_MOTION>14.36491922</MEAN_MOTION><ECCENTRICITY>.0005076</ECCENTRICITY><INCLINATION>45.0375</INCLINATION><RA_OF_ASC_NODE>134.8729</RA_OF_ASC_NODE><ARG_OF_PERICENTER>245.7876</ARG_OF_PERICENTER><MEAN_ANOMALY>114.2442</MEAN_ANOMALY></meanElements><tleParameters><EPHEMERIS_TYPE>0</EPHEMERIS_TYPE><CLASSIFICATION_TYPE>U</CLASSIFICATION_TYPE><NORAD_CAT_ID>25986</NORAD_CAT_ID><ELEMENT_SET_NO>999</ELEMENT_SET_NO><REV_AT_EPOCH>31187</REV_AT_EPOCH><BSTAR>.86556E-3</BSTAR><MEAN_MOTION_DOT>.2422E-4</MEAN_MOTION_DOT><MEAN_MOTION_DDOT>0</MEAN_MOTION_DDOT></tleParameters></data></segment></body></omm>
<omm id="CCSDS_OMM_VERS" version="2.0">
<header><CREATION_DATE/><ORIGINATOR/></header><body><segment><metadata><OBJECT_NAME>ORBCOMM FM38</OBJECT_NAME><OBJECT_ID>2008-031A</OBJECT_ID><CENTER_NAME>EARTH</CENTER_NAME><REF_FRAME>TEME</REF_FRAME><TIME_SYSTEM>UTC</TIME_SYSTEM><MEAN_ELEMENT_THEORY>SGP4</MEAN_ELEMENT_THEORY></metadata><data><meanElements><EPOCH>2025-01-07T16:24:16.015680</EPOCH><MEAN_MOTION>14.80067308</MEAN_MOTION><ECCENTRICITY>.0005321</ECCENTRICITY><INCLINATION>48.4412</INCLINATION><RA_OF_ASC_NODE>359.4972</RA_OF_ASC_NODE><ARG_OF_PERICENTER>61.3249</ARG_OF_PERICENTER><MEAN_ANOMALY>298.8200</MEAN_ANOMALY></meanElements><tleParameters><EPHEMERIS_TYPE>0</EPHEMERIS_TYPE><CLASSIFICATION_TYPE>U</CLASSIFICATION_TYPE><NORAD_CAT_ID>33060</NORAD_CAT_ID><ELEMENT_SET_NO>999</ELEMENT_SET_NO><REV_AT_EPOCH>89095</REV_AT_EPOCH><BSTAR>.57891E-3</BSTAR><MEAN_MOTION_DOT>.4224E-4</MEAN_MOTION_DOT><MEAN_MOTION_DDOT>0</MEAN_MOTION_DDOT></tleParameters></data></segment></body></omm>
<omm id="CCSDS_OMM_VERS" version="2.0">
<header><CREATION_DATE/><ORIGINATOR/></header><body><segment><metadata><OBJECT_NAME>ORBCOMM FM41</OBJECT_NAME><OBJECT_ID>2008-031B</OBJECT_ID><CENTER_NAME>EARTH</CENTER_NAME><REF_FRAME>TEME</REF_FRAME><TIME_SYSTEM>UTC</TIME_SYSTEM><MEAN_ELEMENT_THEORY>SGP4</MEAN_ELEMENT_THEORY></metadata><data><meanElements><EPOCH>2025-01-07T09:39:51.627168</EPOCH><MEAN_MOTION>14.79696589</MEAN_MOTION><ECCENTRICITY>.0004669</ECCENTRICITY><INCLINATION>48.4445</INCLINATION><RA_OF_ASC_NODE>8.0856</RA_OF_ASC_NODE><ARG_OF_PERICENTER>43.1224</ARG_OF_PERICENTER><MEAN_ANOMALY>109.5449</MEAN_ANOMALY></meanElements><tleParameters><EPHEMERIS_TYPE>0</EPHEMERIS_TYPE><CLASSIFICATION_TYPE>U</CLASSIFICATION_TYPE><NORAD_CAT_ID>33061</NORAD_CAT_ID><ELEMENT_SET_NO>999</ELEMENT_SET_NO><REV_AT_EPOCH>89041</REV_AT_EPOCH><BSTAR>.57865E-3</BSTAR><MEAN_MOTION_DOT>.4184E-4</MEAN_MOTION_DOT><MEAN_MOTION_DDOT>0</MEAN_MOTION_DDOT></tleParameters></data></segment></body></omm>
<omm id="CCSDS_OMM_VERS" version="2.0">
<header><CREATION_DATE/><ORIGINATOR/></header><body><segment><metadata><OBJECT_NAME>ORBCOMM FM29</OBJECT_NAME><OBJECT_ID>2008-031C</OBJECT_ID><CENTER_NAME>EARTH</CENTER_NAME><REF_FRAME>TEME</REF_FRAME><TIME_SYSTEM>UTC</TIME_SYSTEM><MEAN_ELEMENT_THEORY>SGP4</MEAN_ELEMENT_THEORY></metadata><data><meanElements><EPOCH>2025-01-07T11:06:50.325408</EPOCH><MEAN_MOTION>14.79735339</MEAN_MOTION><ECCENTRICITY>.0006366</ECCENTRICITY><INCLINATION>48.4398</INCLINATION><RA_OF_ASC_NODE>15.7676</RA_OF_ASC_NODE><ARG_OF_PERICENTER>44.1674</ARG_OF_PERICENTER><MEAN_ANOMALY>112.4660</MEAN_ANOMALY></meanElements><tleParameters><EPHEMERIS_TYPE>0</EPHEMERIS_TYPE><CLASSIFICATION_TYPE>U</CLASSIFICATION_TYPE><NORAD_CAT_ID>33062</NORAD_CAT_ID><ELEMENT_SET_NO>999</ELEMENT_SET_NO><REV_AT_EPOCH>89033</REV_AT_EPOCH><BSTAR>.57644E-3</BSTAR><MEAN_MOTION_DOT>.4171E-4</MEAN_MOTION_DOT><MEAN_MOTION_DDOT>0</MEAN_MOTION_DDOT></tleParameters></data></segment></body></omm>
<omm id="CCSDS_OMM_VERS" version="2.0">
<header><CREATION_DATE/><ORIGINATOR/></header><body><segment><metadata><OBJECT_NAME>ORBCOMM FM39</OBJECT_NAME><OBJECT_ID>2008-031D</OBJECT_ID><CENTER_NAME>EARTH</CENTER_NAME><REF_FRAME>TEME</REF_FRAME><TIME_SYSTEM>UTC</TIME_SYSTEM><MEAN_ELEMENT_THEORY>SGP4</MEAN_ELEMENT_THEORY></metadata><data><meanElements><EPOCH>2025-01-07T12:24:49.011552</EPOCH><MEAN_MOTION>14.78445840</MEAN_MOTION><ECCENTRICITY>.0007441</ECCENTRICITY><INCLINATION>48.4409</INCLINATION><RA_OF_ASC_NODE>38.1037</RA_OF_ASC_NODE><ARG_OF_PERICENTER>18.7122</ARG_OF_PERICENTER><MEAN_ANOMALY>341.4064</MEAN_ANOMALY></meanElements><tleParameters><EPHEMERIS_TYPE>0</EPHEMERIS_TYPE><CLASSIFICATION_TYPE>U</CLASSIFICATION_TYPE><NORAD_CAT_ID>33063</NORAD_CAT_ID><ELEMENT_SET_NO>999</ELEMENT_SET_NO><REV_AT_EPOCH>89001</REV_AT_EPOCH><BSTAR>.50388E-3</BSTAR><MEAN_MOTION_DOT>.3506E-4</MEAN_MOTION_DOT><MEAN_MOTION_DDOT>0</MEAN_MOTION_DDOT></tleParameters></data></segment></body></omm>

</ndm>
